STARLINK-34418          
1 64461U 25130Z   25210.28687988  .00045830  00000+0  11475-2 0  9997
2 64461  53.1612  51.5738 0000967  88.3218 271.7897 15.39656265  7637
STARLINK-34336          
1 64462U 25130AA  25210.58335648 -.01639358  00000+0 -51035-1 0  9996
2 64462  53.1598  47.4291 0001616  94.1376  29.8394 15.35793806  7746
STARLINK-34400          
1 64463U 25130AB  25209.85729751  .00030226  00000+0  54885-3 0  9991
2 64463  53.1604  53.1567 0000352 307.3263  52.7714 15.49337841  7586
STARLINK-34429          
1 64464U 25130AC  25210.25002315 -.00003701  00000+0 -82615-4 0  9991
2 64464  53.1603  51.5940 0001238  85.1271 147.8495 15.39608542  7633
STARLINK-34449          
1 64465U 25130AD  25210.58335648 -.01567914  00000+0 -38650-1 0  9995
2 64465  53.1599  49.7269 0001153  89.6289 339.8561 15.43210612  7702
STARLINK-34493          
1 64472U 25133A   25210.35460901  .00070832  00000+0  17625-2 0  9997
2 64472  53.1586  82.0717 0000987  76.0693 284.0421 15.39652427  6880
STARLINK-34492          
1 64473U 25133B   25210.02572862  .00042585  00000+0  10685-2 0  9995
2 64473  53.1586  83.5737 0000956  95.7202 264.3912 15.39625004  6831
STARLINK-34474          
1 64474U 25133C   25210.34996309  .00042264  00000+0  10589-2 0  9994
2 64474  53.1585  82.0412 0000988  98.2155 261.8962 15.39672670  6866
STARLINK-34523          
1 64475U 25133D   25210.34565843  .00050342  00000+0  12592-2 0  9992
2 64475  53.1585  82.0106 0001360  63.2847 296.8297 15.39644634  6860
STARLINK-34496          
1 64476U 25133E   25210.34532110  .00029845  00000+0  75243-3 0  9991
2 64476  53.1584  82.0071 0000350  27.5972 332.5051 15.39650332  6881
STARLINK-34375          
1 64477U 25133F   25210.08135649  .00033268  00000+0  83735-3 0  9998
2 64477  53.1589  83.2074 0001190  62.5193 297.5933 15.39645144  6839
STARLINK-34490          
1 64478U 25133G   25209.94689506  .00052039  00000+0  12999-2 0  9998
2 64478  53.1577  83.7872 0000455  90.0415 270.0642 15.39671223  6812
STARLINK-34528          
1 64479U 25133H   25210.34068216  .00060836  00000+0  15183-2 0  9996
2 64479  53.1584  81.9817 0002028  90.6369 269.4868 15.39628801  6852
STARLINK-34518          
1 64480U 25133J   25210.58335648  .00070111  00000+0  17488-2 0  9997
2 64480  53.1585  80.7845 0000922 100.0329 191.6679 15.39583049  6755
STARLINK-34526          
1 64481U 25133K   25209.81241226  .00028298  00000+0  71439-3 0  9996
2 64481  53.1593  84.3680 0001012  69.6400 290.4713 15.39637264  6681
STARLINK-34527          
1 64482U 25133L   25209.94190363  .00031178  00000+0  78569-3 0  9998
2 64482  53.1583  83.7553 0000979  72.3275 287.7837 15.39641456  6814
STARLINK-34420          
1 64483U 25133M   25209.93759607  .00045032  00000+0  11287-2 0  9997
2 64483  53.1585  83.7279 0001134  75.3246 284.7884 15.39631900  6819
