[{"OBJECT_NAME":"STARLINK-34418","OBJECT_ID":"2025-130Z","EPOCH":"2025-07-29T06:53:06.421632","MEAN_MOTION":15.39656265,"ECCENTRICITY":9.67e-5,"INCLINATION":53.1612,"RA_OF_ASC_NODE":51.5738,"ARG_OF_PERICENTER":88.3218,"MEAN_ANOMALY":271.7897,"EPHEMERIS_TYPE":0,"CLASSIFICATION_TYPE":"U","NORAD_CAT_ID":64461,"ELEMENT_SET_NO":999,"REV_AT_EPOCH":763,"BSTAR":0.0011475,"MEAN_MOTION_DOT":0.0004583,"MEAN_MOTION_DDOT":0},{"OBJECT_NAME":"STARLINK-34336","OBJECT_ID":"2025-130AA","EPOCH":"2025-07-29T14:00:01.999872","MEAN_MOTION":15.35793806,"ECCENTRICITY":0.0001616,"INCLINATION":53.1598,"RA_OF_ASC_NODE":47.4291,"ARG_OF_PERICENTER":94.1376,"MEAN_ANOMALY":29.8394,"EPHEMERIS_TYPE":0,"CLASSIFICATION_TYPE":"U","NORAD_CAT_ID":64462,"ELEMENT_SET_NO":999,"REV_AT_EPOCH":774,"BSTAR":-0.051035,"MEAN_MOTION_DOT":-0.01639358,"MEAN_MOTION_DDOT":0},{"OBJECT_NAME":"STARLINK-34400","OBJECT_ID":"2025-130AB","EPOCH":"2025-07-28T20:34:30.504864","MEAN_MOTION":15.49337841,"ECCENTRICITY":3.52e-5,"INCLINATION":53.1604,"RA_OF_ASC_NODE":53.1567,"ARG_OF_PERICENTER":307.3263,"MEAN_ANOMALY":52.7714,"EPHEMERIS_TYPE":0,"CLASSIFICATION_TYPE":"U","NORAD_CAT_ID":64463,"ELEMENT_SET_NO":999,"REV_AT_EPOCH":758,"BSTAR":0.00054885,"MEAN_MOTION_DOT":0.00030226,"MEAN_MOTION_DDOT":0},{"OBJECT_NAME":"STARLINK-34429","OBJECT_ID":"2025-130AC","EPOCH":"2025-07-29T06:00:02.000160","MEAN_MOTION":15.39608542,"ECCENTRICITY":0.0001238,"INCLINATION":53.1603,"RA_OF_ASC_NODE":51.594,"ARG_OF_PERICENTER":85.1271,"MEAN_ANOMALY":147.8495,"EPHEMERIS_TYPE":0,"CLASSIFICATION_TYPE":"U","NORAD_CAT_ID":64464,"ELEMENT_SET_NO":999,"REV_AT_EPOCH":763,"BSTAR":-8.2615e-5,"MEAN_MOTION_DOT":-3.701e-5,"MEAN_MOTION_DDOT":0},{"OBJECT_NAME":"STARLINK-34449","OBJECT_ID":"2025-130AD","EPOCH":"2025-07-29T14:00:01.999872","MEAN_MOTION":15.43210612,"ECCENTRICITY":0.0001153,"INCLINATION":53.1599,"RA_OF_ASC_NODE":49.7269,"ARG_OF_PERICENTER":89.6289,"MEAN_ANOMALY":339.8561,"EPHEMERIS_TYPE":0,"CLASSIFICATION_TYPE":"U","NORAD_CAT_ID":64465,"ELEMENT_SET_NO":999,"REV_AT_EPOCH":770,"BSTAR":-0.03865,"MEAN_MOTION_DOT":-0.01567914,"MEAN_MOTION_DDOT":0},{"OBJECT_NAME":"STARLINK-34493","OBJECT_ID":"2025-133A","EPOCH":"2025-07-29T08:30:38.218464","MEAN_MOTION":15.39652427,"ECCENTRICITY":9.87e-5,"INCLINATION":53.1586,"RA_OF_ASC_NODE":82.0717,"ARG_OF_PERICENTER":76.0693,"MEAN_ANOMALY":284.0421,"EPHEMERIS_TYPE":0,"CLASSIFICATION_TYPE":"U","NORAD_CAT_ID":64472,"ELEMENT_SET_NO":999,"REV_AT_EPOCH":688,"BSTAR":0.0017625,"MEAN_MOTION_DOT":0.00070832,"MEAN_MOTION_DDOT":0},{"OBJECT_NAME":"STARLINK-34492","OBJECT_ID":"2025-133B","EPOCH":"2025-07-29T00:37:02.952768","MEAN_MOTION":15.39625004,"ECCENTRICITY":9.56e-5,"INCLINATION":53.1586,"RA_OF_ASC_NODE":83.5737,"ARG_OF_PERICENTER":95.7202,"MEAN_ANOMALY":264.3912,"EPHEMERIS_TYPE":0,"CLASSIFICATION_TYPE":"U","NORAD_CAT_ID":64473,"ELEMENT_SET_NO":999,"REV_AT_EPOCH":683,"BSTAR":0.0010685,"MEAN_MOTION_DOT":0.00042585,"MEAN_MOTION_DDOT":0},{"OBJECT_NAME":"STARLINK-34474","OBJECT_ID":"2025-133C","EPOCH":"2025-07-29T08:23:56.810976","MEAN_MOTION":15.3967267,"ECCENTRICITY":9.88e-5,"INCLINATION":53.1585,"RA_OF_ASC_NODE":82.0412,"ARG_OF_PERICENTER":98.2155,"MEAN_ANOMALY":261.8962,"EPHEMERIS_TYPE":0,"CLASSIFICATION_TYPE":"U","NORAD_CAT_ID":64474,"ELEMENT_SET_NO":999,"REV_AT_EPOCH":686,"BSTAR":0.0010589,"MEAN_MOTION_DOT":0.00042264,"MEAN_MOTION_DDOT":0},{"OBJECT_NAME":"STARLINK-34523","OBJECT_ID":"2025-133D","EPOCH":"2025-07-29T08:17:44.888352","MEAN_MOTION":15.39644634,"ECCENTRICITY":0.000136,"INCLINATION":53.1585,"RA_OF_ASC_NODE":82.0106,"ARG_OF_PERICENTER":63.2847,"MEAN_ANOMALY":296.8297,"EPHEMERIS_TYPE":0,"CLASSIFICATION_TYPE":"U","NORAD_CAT_ID":64475,"ELEMENT_SET_NO":999,"REV_AT_EPOCH":686,"BSTAR":0.0012592,"MEAN_MOTION_DOT":0.00050342,"MEAN_MOTION_DDOT":0},{"OBJECT_NAME":"STARLINK-34496","OBJECT_ID":"2025-133E","EPOCH":"2025-07-29T08:17:15.743040","MEAN_MOTION":15.39650332,"ECCENTRICITY":3.5e-5,"INCLINATION":53.1584,"RA_OF_ASC_NODE":82.0071,"ARG_OF_PERICENTER":27.5972,"MEAN_ANOMALY":332.5051,"EPHEMERIS_TYPE":0,"CLASSIFICATION_TYPE":"U","NORAD_CAT_ID":64476,"ELEMENT_SET_NO":999,"REV_AT_EPOCH":688,"BSTAR":0.00075243,"MEAN_MOTION_DOT":0.00029845,"MEAN_MOTION_DDOT":0},{"OBJECT_NAME":"STARLINK-34375","OBJECT_ID":"2025-133F","EPOCH":"2025-07-29T01:57:09.200736","MEAN_MOTION":15.39645144,"ECCENTRICITY":0.000119,"INCLINATION":53.1589,"RA_OF_ASC_NODE":83.2074,"ARG_OF_PERICENTER":62.5193,"MEAN_ANOMALY":297.5933,"EPHEMERIS_TYPE":0,"CLASSIFICATION_TYPE":"U","NORAD_CAT_ID":64477,"ELEMENT_SET_NO":999,"REV_AT_EPOCH":683,"BSTAR":0.00083735,"MEAN_MOTION_DOT":0.00033268,"MEAN_MOTION_DDOT":0},{"OBJECT_NAME":"STARLINK-34490","OBJECT_ID":"2025-133G","EPOCH":"2025-07-28T22:43:31.733184","MEAN_MOTION":15.39671223,"ECCENTRICITY":4.55e-5,"INCLINATION":53.1577,"RA_OF_ASC_NODE":83.7872,"ARG_OF_PERICENTER":90.0415,"MEAN_ANOMALY":270.0642,"EPHEMERIS_TYPE":0,"CLASSIFICATION_TYPE":"U","NORAD_CAT_ID":64478,"ELEMENT_SET_NO":999,"REV_AT_EPOCH":681,"BSTAR":0.0012999,"MEAN_MOTION_DOT":0.00052039,"MEAN_MOTION_DDOT":0},{"OBJECT_NAME":"STARLINK-34528","OBJECT_ID":"2025-133H","EPOCH":"2025-07-29T08:10:34.938624","MEAN_MOTION":15.39628801,"ECCENTRICITY":0.0002028,"INCLINATION":53.1584,"RA_OF_ASC_NODE":81.9817,"ARG_OF_PERICENTER":90.6369,"MEAN_ANOMALY":269.4868,"EPHEMERIS_TYPE":0,"CLASSIFICATION_TYPE":"U","NORAD_CAT_ID":64479,"ELEMENT_SET_NO":999,"REV_AT_EPOCH":685,"BSTAR":0.0015183,"MEAN_MOTION_DOT":0.00060836,"MEAN_MOTION_DDOT":0},{"OBJECT_NAME":"STARLINK-34518","OBJECT_ID":"2025-133J","EPOCH":"2025-07-29T14:00:01.999872","MEAN_MOTION":15.39583049,"ECCENTRICITY":9.22e-5,"INCLINATION":53.1585,"RA_OF_ASC_NODE":80.7845,"ARG_OF_PERICENTER":100.0329,"MEAN_ANOMALY":191.6679,"EPHEMERIS_TYPE":0,"CLASSIFICATION_TYPE":"U","NORAD_CAT_ID":64480,"ELEMENT_SET_NO":999,"REV_AT_EPOCH":675,"BSTAR":0.0017488,"MEAN_MOTION_DOT":0.00070111,"MEAN_MOTION_DDOT":0},{"OBJECT_NAME":"STARLINK-34526","OBJECT_ID":"2025-133K","EPOCH":"2025-07-28T19:29:52.419264","MEAN_MOTION":15.39637264,"ECCENTRICITY":0.0001012,"INCLINATION":53.1593,"RA_OF_ASC_NODE":84.368,"ARG_OF_PERICENTER":69.64,"MEAN_ANOMALY":290.4713,"EPHEMERIS_TYPE":0,"CLASSIFICATION_TYPE":"U","NORAD_CAT_ID":64481,"ELEMENT_SET_NO":999,"REV_AT_EPOCH":668,"BSTAR":0.00071439,"MEAN_MOTION_DOT":0.00028298,"MEAN_MOTION_DDOT":0},{"OBJECT_NAME":"STARLINK-34527","OBJECT_ID":"2025-133L","EPOCH":"2025-07-28T22:36:20.473632","MEAN_MOTION":15.39641456,"ECCENTRICITY":9.79e-5,"INCLINATION":53.1583,"RA_OF_ASC_NODE":83.7553,"ARG_OF_PERICENTER":72.3275,"MEAN_ANOMALY":287.7837,"EPHEMERIS_TYPE":0,"CLASSIFICATION_TYPE":"U","NORAD_CAT_ID":64482,"ELEMENT_SET_NO":999,"REV_AT_EPOCH":681,"BSTAR":0.00078569,"MEAN_MOTION_DOT":0.00031178,"MEAN_MOTION_DDOT":0},{"OBJECT_NAME":"STARLINK-34420","OBJECT_ID":"2025-133M","EPOCH":"2025-07-28T22:30:08.300448","MEAN_MOTION":15.396319,"ECCENTRICITY":0.0001134,"INCLINATION":53.1585,"RA_OF_ASC_NODE":83.7279,"ARG_OF_PERICENTER":75.3246,"MEAN_ANOMALY":284.7884,"EPHEMERIS_TYPE":0,"CLASSIFICATION_TYPE":"U","NORAD_CAT_ID":64483,"ELEMENT_SET_NO":999,"REV_AT_EPOCH":681,"BSTAR":0.0011287,"MEAN_MOTION_DOT":0.00045032,"MEAN_MOTION_DDOT":0}]
